CCSDS_OMM_VERS = 2.0
CREATION_DATE  = 
ORIGINATOR     = 

OBJECT_NAME    = STARLINK-36609
OBJECT_ID      = 2026-016X
CENTER_NAME    = EARTH
REF_FRAME      = TEME
TIME_SYSTEM    = UTC
MEAN_ELEMENT_THEORY = SGP/SGP4

EPOCH          = 2026-02-10T14:00:03.000384
MEAN_MOTION    = 15.74897386
ECCENTRICITY   = .00018629
INCLINATION    = 97.2856
RA_OF_ASC_NODE = 100.6967
ARG_OF_PERICENTER = 111.0361
MEAN_ANOMALY   = 266.6533

EPHEMERIS_TYPE = 0
CLASSIFICATION_TYPE = U
NORAD_CAT_ID   = 67582
ELEMENT_SET_NO = 999
REV_AT_EPOCH   = 369
BSTAR          = .21403848E-2
MEAN_MOTION_DOT = .327522E-2
MEAN_MOTION_DDOT = 0

CCSDS_OMM_VERS = 2.0
CREATION_DATE  = 
ORIGINATOR     = 

OBJECT_NAME    = STARLINK-36577
OBJECT_ID      = 2026-016Y
CENTER_NAME    = EARTH
REF_FRAME      = TEME
TIME_SYSTEM    = UTC
MEAN_ELEMENT_THEORY = SGP/SGP4

EPOCH          = 2026-02-10T12:17:59.785728
MEAN_MOTION    = 15.80872092
ECCENTRICITY   = .00013299
INCLINATION    = 97.2851
RA_OF_ASC_NODE = 100.6321
ARG_OF_PERICENTER = 37.7943
MEAN_ANOMALY   = 322.3418

EPHEMERIS_TYPE = 0
CLASSIFICATION_TYPE = U
NORAD_CAT_ID   = 67583
ELEMENT_SET_NO = 999
REV_AT_EPOCH   = 252
BSTAR          = .99615761E-3
MEAN_MOTION_DOT = .195506E-2
MEAN_MOTION_DDOT = 0

CCSDS_OMM_VERS = 2.0
CREATION_DATE  = 
ORIGINATOR     = 

OBJECT_NAME    = STARLINK-36419
OBJECT_ID      = 2026-016Z
CENTER_NAME    = EARTH
REF_FRAME      = TEME
TIME_SYSTEM    = UTC
MEAN_ELEMENT_THEORY = SGP/SGP4

EPOCH          = 2026-02-10T14:00:03.000384
MEAN_MOTION    = 15.80775543
ECCENTRICITY   = .0001286
INCLINATION    = 97.2854
RA_OF_ASC_NODE = 100.7173
ARG_OF_PERICENTER = 95.9839
MEAN_ANOMALY   = 329.9281

EPHEMERIS_TYPE = 0
CLASSIFICATION_TYPE = U
NORAD_CAT_ID   = 67584
ELEMENT_SET_NO = 999
REV_AT_EPOCH   = 369
BSTAR          = .72163538E-3
MEAN_MOTION_DOT = .140067E-2
MEAN_MOTION_DDOT = 0

CCSDS_OMM_VERS = 2.0
CREATION_DATE  = 
ORIGINATOR     = 

OBJECT_NAME    = STARLINK-36560
OBJECT_ID      = 2026-016AA
CENTER_NAME    = EARTH
REF_FRAME      = TEME
TIME_SYSTEM    = UTC
MEAN_ELEMENT_THEORY = SGP/SGP4

EPOCH          = 2026-02-10T14:00:03.000384
MEAN_MOTION    = 15.80822081
ECCENTRICITY   = .00014169
INCLINATION    = 97.2855
RA_OF_ASC_NODE = 100.7211
ARG_OF_PERICENTER = 91.7065
MEAN_ANOMALY   = 343.9829

EPHEMERIS_TYPE = 0
CLASSIFICATION_TYPE = U
NORAD_CAT_ID   = 67585
ELEMENT_SET_NO = 999
REV_AT_EPOCH   = 363
BSTAR          = .22972824E-3
MEAN_MOTION_DOT = .44097E-3
MEAN_MOTION_DDOT = 0

CCSDS_OMM_VERS = 2.0
CREATION_DATE  = 
ORIGINATOR     = 

OBJECT_NAME    = CZ-2C DEB
OBJECT_ID      = 2026-009C
CENTER_NAME    = EARTH
REF_FRAME      = TEME
TIME_SYSTEM    = UTC
MEAN_ELEMENT_THEORY = SGP/SGP4

EPOCH          = 2026-02-10T10:41:02.636160
MEAN_MOTION    = 15.12400660
ECCENTRICITY   = .01106093
INCLINATION    = 97.2261
RA_OF_ASC_NODE = 114.8332
ARG_OF_PERICENTER = 131.3156
MEAN_ANOMALY   = 229.7660

EPHEMERIS_TYPE = 0
CLASSIFICATION_TYPE = U
NORAD_CAT_ID   = 67586
ELEMENT_SET_NO = 999
REV_AT_EPOCH   = 396
BSTAR          = .28353826E-2
MEAN_MOTION_DOT = .5747E-3
MEAN_MOTION_DDOT = 0

CCSDS_OMM_VERS = 2.0
CREATION_DATE  = 
ORIGINATOR     = 

OBJECT_NAME    = CZ-2C DEB
OBJECT_ID      = 2026-009D
CENTER_NAME    = EARTH
REF_FRAME      = TEME
TIME_SYSTEM    = UTC
MEAN_ELEMENT_THEORY = SGP/SGP4

EPOCH          = 2026-02-10T03:36:35.088768
MEAN_MOTION    = 15.13784651
ECCENTRICITY   = .01070783
INCLINATION    = 97.6723
RA_OF_ASC_NODE = 116.0060
ARG_OF_PERICENTER = 137.8627
MEAN_ANOMALY   = 223.0900

EPHEMERIS_TYPE = 0
CLASSIFICATION_TYPE = U
NORAD_CAT_ID   = 67587
ELEMENT_SET_NO = 999
REV_AT_EPOCH   = 392
BSTAR          = .19953901E-2
MEAN_MOTION_DOT = .41642E-3
MEAN_MOTION_DDOT = 0

CCSDS_OMM_VERS = 2.0
CREATION_DATE  = 
ORIGINATOR     = 

OBJECT_NAME    = NAVSTAR 85 (USA 581)
OBJECT_ID      = 2026-017A
CENTER_NAME    = EARTH
REF_FRAME      = TEME
TIME_SYSTEM    = UTC
MEAN_ELEMENT_THEORY = SGP/SGP4

EPOCH          = 2026-02-10T13:25:10.926336
MEAN_MOTION    = 2.00561450
ECCENTRICITY   = .00008482
INCLINATION    = 55.0035
RA_OF_ASC_NODE = 93.8371
ARG_OF_PERICENTER = 67.1239
MEAN_ANOMALY   = 292.9471

EPHEMERIS_TYPE = 0
CLASSIFICATION_TYPE = U
NORAD_CAT_ID   = 67588
ELEMENT_SET_NO = 999
REV_AT_EPOCH   = 42907
BSTAR          = 0
MEAN_MOTION_DOT = -.36E-6
MEAN_MOTION_DDOT = 0

CCSDS_OMM_VERS = 2.0
CREATION_DATE  = 
ORIGINATOR     = 

OBJECT_NAME    = STARLINK-36641
OBJECT_ID      = 2026-018A
CENTER_NAME    = EARTH
REF_FRAME      = TEME
TIME_SYSTEM    = UTC
MEAN_ELEMENT_THEORY = SGP/SGP4

EPOCH          = 2026-02-10T14:00:03.000384
MEAN_MOTION    = 15.80697680
ECCENTRICITY   = .00013494
INCLINATION    = 97.2823
RA_OF_ASC_NODE = 105.9856
ARG_OF_PERICENTER = 99.3857
MEAN_ANOMALY   = 355.3946

EPHEMERIS_TYPE = 0
CLASSIFICATION_TYPE = U
NORAD_CAT_ID   = 67589
ELEMENT_SET_NO = 999
REV_AT_EPOCH   = 298
BSTAR          = .14321647E-2
MEAN_MOTION_DOT = .28171E-2
MEAN_MOTION_DDOT = 0

CCSDS_OMM_VERS = 2.0
CREATION_DATE  = 
ORIGINATOR     = 

OBJECT_NAME    = STARLINK-36376
OBJECT_ID      = 2026-018B
CENTER_NAME    = EARTH
REF_FRAME      = TEME
TIME_SYSTEM    = UTC
MEAN_ELEMENT_THEORY = SGP/SGP4

EPOCH          = 2026-02-10T14:00:03.000384
MEAN_MOTION    = 15.80740626
ECCENTRICITY   = .00013749
INCLINATION    = 97.2809
RA_OF_ASC_NODE = 105.9873
ARG_OF_PERICENTER = 105.4477
MEAN_ANOMALY   = 354.5325

EPHEMERIS_TYPE = 0
CLASSIFICATION_TYPE = U
NORAD_CAT_ID   = 67590
ELEMENT_SET_NO = 999
REV_AT_EPOCH   = 303
BSTAR          = .92810722E-3
MEAN_MOTION_DOT = .180743E-2
MEAN_MOTION_DDOT = 0

CCSDS_OMM_VERS = 2.0
CREATION_DATE  = 
ORIGINATOR     = 

OBJECT_NAME    = STARLINK-36391
OBJECT_ID      = 2026-018C
CENTER_NAME    = EARTH
REF_FRAME      = TEME
TIME_SYSTEM    = UTC
MEAN_ELEMENT_THEORY = SGP/SGP4

EPOCH          = 2026-02-10T14:00:03.000384
MEAN_MOTION    = 15.80726805
ECCENTRICITY   = .00013027
INCLINATION    = 97.2810
RA_OF_ASC_NODE = 105.9898
ARG_OF_PERICENTER = 94.0443
MEAN_ANOMALY   = 12.1441

EPHEMERIS_TYPE = 0
CLASSIFICATION_TYPE = U
NORAD_CAT_ID   = 67591
ELEMENT_SET_NO = 999
REV_AT_EPOCH   = 303
BSTAR          = .80673159E-3
MEAN_MOTION_DOT = .15655E-2
MEAN_MOTION_DDOT = 0

CCSDS_OMM_VERS = 2.0
CREATION_DATE  = 
ORIGINATOR     = 

OBJECT_NAME    = STARLINK-36603
OBJECT_ID      = 2026-018D
CENTER_NAME    = EARTH
REF_FRAME      = TEME
TIME_SYSTEM    = UTC
MEAN_ELEMENT_THEORY = SGP/SGP4

EPOCH          = 2026-02-10T14:00:03.000384
MEAN_MOTION    = 15.80754435
ECCENTRICITY   = .00011008
INCLINATION    = 97.2810
RA_OF_ASC_NODE = 105.9914
ARG_OF_PERICENTER = 82.2290
MEAN_ANOMALY   = 28.2079

EPHEMERIS_TYPE = 0
CLASSIFICATION_TYPE = U
NORAD_CAT_ID   = 67592
ELEMENT_SET_NO = 999
REV_AT_EPOCH   = 299
BSTAR          = .47908045E-3
MEAN_MOTION_DOT = .9234E-3
MEAN_MOTION_DDOT = 0

CCSDS_OMM_VERS = 2.0
CREATION_DATE  = 
ORIGINATOR     = 

OBJECT_NAME    = STARLINK-36634
OBJECT_ID      = 2026-018E
CENTER_NAME    = EARTH
REF_FRAME      = TEME
TIME_SYSTEM    = UTC
MEAN_ELEMENT_THEORY = SGP/SGP4

EPOCH          = 2026-02-10T14:00:03.000384
MEAN_MOTION    = 15.80785235
ECCENTRICITY   = .00011116
INCLINATION    = 97.2809
RA_OF_ASC_NODE = 105.9940
ARG_OF_PERICENTER = 77.7196
MEAN_ANOMALY   = 39.2458

EPHEMERIS_TYPE = 0
CLASSIFICATION_TYPE = U
NORAD_CAT_ID   = 67593
ELEMENT_SET_NO = 999
REV_AT_EPOCH   = 298
BSTAR          = .29183476E-3
MEAN_MOTION_DOT = .56038E-3
MEAN_MOTION_DDOT = 0

