STARLINK-36609          
1 67582U 26016X   26041.58336806  .00327522  00000+0  21404-2 0  9998
2 67582  97.2856 100.6967 0001862 111.0361 266.6533 15.74897386  3693
STARLINK-36577          
1 67583U 26016Y   26041.51249752  .00195506  00000+0  99616-3 0  9991
2 67583  97.2851 100.6321 0001329  37.7943 322.3418 15.80872092  2528
STARLINK-36419          
1 67584U 26016Z   26041.58336806  .00140067  00000+0  72164-3 0  9997
2 67584  97.2854 100.7173 0001286  95.9839 329.9281 15.80775543  3693
STARLINK-36560          
1 67585U 26016AA  26041.58336806  .00044097  00000+0  22973-3 0  9997
2 67585  97.2855 100.7211 0001416  91.7065 343.9829 15.80822081  3636
CZ-2C DEB               
1 67586U 26009C   26041.44516940  .00057470  00000+0  28354-2 0  9991
2 67586  97.2261 114.8332 0110609 131.3156 229.7660 15.12400660  3965
CZ-2C DEB               
1 67587U 26009D   26041.15040612  .00041642  00000+0  19954-2 0  9998
2 67587  97.6723 116.0060 0107078 137.8627 223.0900 15.13784651  3921
NAVSTAR 85 (USA 581)    
1 67588U 26017A   26041.55915424 -.00000036  00000+0  00000+0 0  9996
2 67588  55.0035  93.8371 0000848  67.1239 292.9471  2.00561450429072
STARLINK-36641          
1 67589U 26018A   26041.58336806  .00281710  00000+0  14322-2 0  9996
2 67589  97.2823 105.9856 0001349  99.3857 355.3946 15.80697680  2984
STARLINK-36376          
1 67590U 26018B   26041.58336806  .00180743  00000+0  92811-3 0  9992
2 67590  97.2809 105.9873 0001374 105.4477 354.5325 15.80740626  3032
STARLINK-36391          
1 67591U 26018C   26041.58336806  .00156550  00000+0  80673-3 0  9995
2 67591  97.2810 105.9898 0001302  94.0443  12.1441 15.80726805  3038
STARLINK-36603          
1 67592U 26018D   26041.58336806  .00092340  00000+0  47908-3 0  9996
2 67592  97.2810 105.9914 0001100  82.2290  28.2079 15.80754435  2992
STARLINK-36634          
1 67593U 26018E   26041.58336806  .00056038  00000+0  29183-3 0  9996
2 67593  97.2809 105.9940 0001111  77.7196  39.2458 15.80785235  2980
